IRIDIUM 166             
1 43570U 18061B   24165.60928849  .00000016  00000+0 -14488-5 0  9996
2 43570  86.3970   3.3077 0002035  95.5814 264.5614 14.34217380308255
IRIDIUM 158             
1 43571U 18061C   24165.57757558  .00000026  00000+0  23531-5 0  9999
2 43571  86.3977   3.3302 0002300  89.7543 270.3916 14.34216535308210
IRIDIUM 165             
1 43572U 18061D   24165.60294782  .00000096  00000+0  27370-4 0  9990
2 43572  86.3977   3.3520 0002293  89.3278 270.8180 14.34215825308247
IRIDIUM 155             
1 43573U 18061E   24165.63466095  .00000373  00000+0  12602-3 0  9991
2 43573  86.3974   3.2442 0002062  95.6425 264.5006 14.34217634308219
IRIDIUM 154             
1 43574U 18061F   24165.61563060  .00000023  00000+0  10096-5 0  9999
2 43574  86.3976   3.3495 0002176  82.2721 277.8722 14.34217607308265
IRIDIUM 163             
1 43575U 18061G   24165.59660280 -.00000031  00000+0 -18236-4 0  9993
2 43575  86.3968   3.2958 0001977  88.3410 271.8013 14.34217328308234
IRIDIUM 156             
1 43576U 18061H   24165.57123586  .00000365  00000+0  12322-3 0  9992
2 43576  86.3975   3.3130 0002251  91.0711 269.0743 14.34216756308229
IRIDIUM 164             
1 43577U 18061J   24165.41266012  .00000349  00000+0  11760-3 0  9995
2 43577  86.3975   3.4079 0002409  84.1926 275.9545 14.34221477308243
